#aV2019  8 15  0  0  0.00000000     288 DD+AD WGS84 FIT  NGA
## 2066 345600.00000000   300.00000000 58710 0.0000000000000
+   31     1  2  3  5  6  7  8  9 10 11 12 13 14 15 16 17 18
+         19 20 21 22 23 24 25 26 27 28 29 30 31 32  0  0  0
+          0  0  0  0  0  0  0  0  0  0  0  0  0  0  0  0  0
+          0  0  0  0  0  0  0  0  0  0  0  0  0  0  0  0  0
+          0  0  0  0  0  0  0  0  0  0  0  0  0  0  0  0  0
++         2  2  2  2  2  2  2  2  2  2  2  2  2  2  2  2  2
++         2  2  2  2  2  2  2  2  2  2  2  2  2  2  0  0  0
++         0  0  0  0  0  0  0  0  0  0  0  0  0  0  0  0  0
++         0  0  0  0  0  0  0  0  0  0  0  0  0  0  0  0  0
++         0  0  0  0  0  0  0  0  0  0  0  0  0  0  0  0  0
%c cc cc ccc ccc cccc cccc cccc cccc ccccc ccccc ccccc ccccc
%c cc cc ccc ccc cccc cccc cccc cccc ccccc ccccc ccccc ccccc
%f  0.0000000  0.000000000  0.00000000000  0.000000000000000
%f  0.0000000  0.000000000  0.00000000000  0.000000000000000
%i    0    0    0    0      0      0      0      0         0
%i    0    0    0    0      0      0      0      0         0
/*      NGA, ST. LOUIS,MO.                                  
/*   EPHEMERIS COMPUTED FROM 2 DAYS OF DATA                 
/*   EPOCHA v5 SMOOTHER                                     
/*   G1762 IERS2010 SATAF SATAPC                            
*  2019  8 15  5 40  0.00000000
P  1 -20935.536982 -14327.154528  -8599.078802    -97.159276                    
V  1  10491.054837   2073.911331 -29376.660809     -0.114763                    
P  2   1904.700691  16429.518289  21420.400266   -283.194011                    
V  2 -24817.628309  -7028.823726   7686.389057     -0.083728                    
P  3 -13026.238421 -18169.797144  14360.088144     -1.723074                    
V  3   -931.534277 -18362.738587 -23906.556581     -0.029880                    
P  5   2177.441786  26063.468310   3817.548969     -0.625399                    
V  5  -4160.511709  -4343.152393  31164.846887     -0.002528                    
P  6 -14324.058538   9329.301012  20374.885908    -25.371763                    
V  6 -23771.350243  -9890.255828 -12177.159474     -0.118381                    
P  7 -25507.244930  -5837.624006  -5590.536545    -85.473144                    
V  7  -5902.020598  -5090.227381  30246.052726     -0.078502                    
P  8  -6200.191283 -14100.690058 -21586.219954     -2.703517                    
V  8  21360.750876 -17284.744440   5351.594371     -0.014747                    
P  9 -21280.723012   3525.183982  15460.040740     -6.883801                    
V  9  13704.958035 -14350.442676  22068.745797     -0.089277                    
P 10  12355.385080 -11675.150484 -20291.077755    -14.818940                    
V 10   5294.508212  25430.636571 -11577.192177     -0.141494                    
P 11 -18457.722811 -10899.704517 -16037.575554   -534.746105                    
V 11  19369.714274  -4616.731562 -20102.162731      0.101058                    
P 12   9963.856700  21536.694850  11880.704210    213.945767                    
V 12   -319.912713  15425.605204 -27047.834742     -0.036990                    
P 13  -5244.688890  18367.174281 -18539.992238    -49.604720                    
V 13 -20488.206827  11219.984781  17069.500680      0.019311                    
P 14  17032.548138 -18699.717648   8116.535820    -66.498582                    
V 14   9696.821907  -3412.541598 -29577.491855      0.019025                    
P 15   8423.222510  13985.105812 -21184.328758   -294.037939                    
V 15 -19289.180205  18106.996907   4733.826186      0.026042                    
P 16    981.292975 -25917.657943   4326.667206    -65.109603                    
V 16   2889.956310   5589.678838  31884.097688     -0.033318                    
P 17 -21248.746214  15854.979259    429.794992    107.128184                    
V 17  -1303.650572  -1706.501657 -32317.605373      0.068397                    
P 18 -14044.793743 -16436.141114 -16008.359069     77.983015                    
V 18  19012.170922   4201.522933 -21572.651524      0.028928                    
P 19 -19280.339843  17293.466919   5679.546799   -280.713419                    
V 19  -7474.795397   2441.993441 -31105.122144      0.050371                    
P 20  15955.520037  -1755.552724 -21275.962336    526.464553                    
V 20   7244.423713  25884.972158   3143.563369      0.001720                    
P 21  24543.398883    835.987610  -9094.256154   -136.199326                    
V 21  11205.879507   6867.083355  28600.264196      0.066732                    
P 22 -11474.103250 -22779.226829   7801.506774   -743.946482                    
V 22   1106.162096 -10173.298255 -28820.171971     -0.044091                    
P 23 -14323.467964  -8062.311334  21265.414572   -172.139812                    
V 23  19654.573082 -17352.705222   6376.678334      0.019285                    
P 24  19502.365782  14708.214752 -10992.267304     -0.805380                    
V 24 -13841.619028  -1534.885635 -26664.674710     -0.005348                    
P 25  15170.284127   8730.767630  19840.606783     -7.398807                    
V 25   3054.119193  25394.408700 -13123.909279     -0.020756                    
P 26   5995.910924 -21702.483416  13927.167147     15.415304                    
V 26   5809.199495  17024.797857  24177.170166      0.090226                    
P 27   7045.949680 -19822.127087 -16140.435755    -24.372092                    
V 27  16818.454790 -11610.168885  22043.077084     -0.114841                    
P 28 -12548.572853  11337.517803 -19906.180271    764.700885                    
V 28  -2795.596700 -26416.197749 -12801.146702     -0.009349                    
P 29  19822.864347    235.747112  17650.265390    124.620581                    
V 29 -17550.970811  14001.318669  19462.893328     -0.100048                    
P 30 -21665.418820   2819.879433 -15207.147485    -19.908295                    
V 30 -16869.277964  -9749.904653  21982.168342     -0.077829                    
P 31  13235.077299 -10255.845520  20708.869643     17.258131                    
V 31  23972.377001  10622.731348  -9617.904222     -0.026141                    
P 32  20688.986021 -16530.458215   -673.055219     19.651750                    
V 32   1232.729774   2951.485681 -31730.244193      0.144761                    
EOF
